2 52297  53.2151 250.2961 0001850  88.1585 271.9619 15.08868843197315
STARLINK-3760           
1 52298U 22041AP  25318.10548172 -.00001405  00000+0 -70210-4 0  9997
2 52298  53.2165 257.6117 0001390  79.0882 281.0267 15.08831715197064
STARLINK-3769           
1 52300U 22041AR  25319.79095672 -.00008879  00000+0 -54061-3 0  9996
2 52300  53.2162 250.4312 0001655  81.6497 278.4682 15.08826889198538
STARLINK-3768           
1 52301U 22041AS  25319.80937661  .00013237  00000+0  84776-3 0  9990
2 52301  53.2150 250.3458 0002106  78.6630 281.4599 15.08860147197314
STARLINK-3564           
1 52302U 22041AT  25319.78085896  .00014774  00000+0  94379-3 0  9999
2 52302  53.2151 240.4769 0001759  81.5059 278.6132 15.08864840197441
STARLINK-3742           
1 52303U 22041AU  25318.53610213 -.00001172  00000+0 -55609-4 0  9993
2 52303  53.2165 256.0652 0001406  89.5142 270.6011 15.08819895198349
STARLINK-3744           
1 52304U 22041AV  25319.77717630 -.00000109  00000+0  11231-4 0  9993
2 52304  53.2174 240.4948 0001751  85.0922 275.0270 15.08842988197440
STARLINK-3724           
1 52305U 22041AW  25319.53338846  .00003539  00000+0  24039-3 0  9994
2 52305  53.2191 251.6964 0001905  80.4538 279.6670 15.08836552197270
STARLINK-3747           
1 52306U 22041AX  25319.77349263  .00009966  00000+0  64312-3 0  9994
2 52306  53.2164 240.5091 0001604  88.6822 271.4354 15.08853902198662
STARLINK-3755           
1 52307U 22041AY  25319.52233007  .00011671  00000+0  75036-3 0  9997
2 52307  53.2168 251.6390 0001009 107.7406 252.3696 15.08828924197271
STARLINK-3756           
1 52309U 22041BA  25319.76981344  .00013416  00000+0  85883-3 0  9999
2 52309  53.2151 240.5256 0002580  89.9763 270.1525 15.08863449198669
STARLINK-3688           
1 52310U 22041BB  25319.76614957  .00003013  00000+0  20742-3 0  9999
2 52310  53.2169 240.6066 0000926  63.3613 296.7474 15.08823532198668
STARLINK-3750           
1 52311U 22041BC  25319.49749455  .00005351  00000+0  35410-3 0  9997
2 52311  53.2170 241.7478 0001558  84.9502 275.1668 15.08834728198629
STARLINK-3752           
1 52312U 22041BD  25319.52325083  .00002036  00000+0  14598-3 0  9990
2 52312  53.2155 241.5835 0001274  97.5467 262.5670 15.08830999198633
STARLINK-3749           
1 52313U 22041BE  25319.52693582  .00009735  00000+0  62870-3 0  9992
2 52313  53.2149 241.6136 0001433 105.2743 254.8408 15.08852363198635
STARLINK-3889           
1 52331U 22045A   25319.51588568  .00018331  00000+0  11659-2 0  9992
2 52331  53.2185   1.6690 0001546  69.0281 291.0876 15.08868958198407
STARLINK-3831           
1 52332U 22045B   25319.52787714  .00003407  00000+0  23192-3 0  9992
2 52332  53.2186   1.6189 0000997 107.5815 252.5286 15.08855010198404
STARLINK-3847           
1 52333U 22045C   25319.52324340  .00024295  00000+0  15386-2 0  9998
2 52333  53.2184   1.6348 0001125  76.6633 283.4485 15.08858662198396
STARLINK-3880           
1 52334U 22045D   25319.51220984  .00002681  00000+0  18657-3 0  9997
2 52334  53.2191   1.6832 0001393  76.6301 283.4847 15.08815537198398
STARLINK-3814           
1 52335U 22045E   25319.50853561  .00003142  00000+0  21550-3 0  9999
2 52335  53.2185   1.6977 0001476  75.6665 284.4491 15.08823021198401
STARLINK-3823           
1 52336U 22045F   25319.81394394  .00000415  00000+0  44141-4 0  9990
2 52336  53.2190   0.1246 0001368  93.0572 267.0576 15.08833183198458
STARLINK-3797           
1 52337U 22045G   25319.38709918  .00014094  00000+0  90145-3 0  9997
2 52337  53.2178   2.2447 0001382  80.4298 279.6850 15.08856279198389
STARLINK-3792           
1 52339U 22045J   25319.59313757  .00019546  00000+0  12419-2 0  9998
2 52339  53.2174   0.9637 0001564  66.2218 293.8938 15.08864936198428
STARLINK-3818           
1 52340U 22045K   25319.52414391  .00007662  00000+0  49867-3 0  9993
2 52340  53.2187 351.6292 0001078  77.0325 283.0787 15.08863919198531
STARLINK-3843           
1 52341U 22045L   25319.82500338  .00007821  00000+0  50873-3 0  9990
2 52341  53.2179   0.2295 0001515 105.6894 254.4265 15.08856731198456
STARLINK-3850           
1 52342U 22045M   25319.46163650  .00015152  00000+0  96765-3 0  9999
2 52342  53.2176 352.0274 0001197  77.4476 282.6650 15.08854690198539
STARLINK-3849           
1 52343U 22045N   25319.53062087  .00018554  00000+0  11800-2 0  9995
2 52343  53.2175   1.6018 0001301 104.2773 255.8364 15.08864063198414
STARLINK-3851           
1 52344U 22045P   25319.51680300 -.00001825  00000+0 -96654-4 0  9995
2 52344  53.2177 351.7289 0001162 108.3018 251.8100 15.08830443198541
STARLINK-3852           
1 52345U 22045Q   25319.47730809  .00003360  00000+0  22910-3 0  9998
2 52345  53.2176 352.0026 0000887  84.1465 275.9628 15.08835414198527
STARLINK-3812           
1 52346U 22045R   25319.37792481  .00002899  00000+0  20017-3 0  9994
2 52346  53.2199 352.2972 0001412 104.6871 255.4278 15.08833251198520
STARLINK-3826           
1 52347U 22045S   25319.32273255  .00000282  00000+0  35815-4 0  9990
2 52347  53.2188 352.5430 0001430  85.2738 274.8418 15.08829749198514
STARLINK-3829           
1 52348U 22045T   25319.36961785  .00007616  00000+0  49608-3 0  9999
2 52348  53.2176 352.3220 0001446  67.9379 292.1766 15.08838790198528
STARLINK-3819           
1 52349U 22045U   25319.38064801  .00013237  00000+0  84766-3 0  9995
2 52349  53.2184 352.2735 0001832  92.5774 267.5427 15.08863813198524
STARLINK-3754           
1 52350U 22045V   25319.82961959  .00000955  00000+0  78114-4 0  9990
2 52350  53.2197 350.2546 0001819  97.6202 262.4997 15.08837560198598
STARLINK-3838           
1 52352U 22045X   25319.81858341  .00017789  00000+0  11322-2 0  9990
2 52352  53.2175 350.3121 0001288  80.4009 279.7129 15.08866603198599
STARLINK-3807           
1 52353U 22045Y   25319.49474536  .00000457  00000+0  46803-4 0  9993
2 52353  53.2207 351.7564 0002004 117.6873 242.4322 15.08836540198545
STARLINK-3877           
1 52355U 22045AA  25319.82224483  .00003224  00000+0  22052-3 0  9990
2 52355  53.2200 350.2887 0001676  91.9582 268.1602 15.08843181198597
STARLINK-3801           
1 52356U 22045AB  25319.48000745  .00004016  00000+0  27026-3 0  9992
2 52356  53.2187 351.8543 0001216 104.6582 255.4545 15.08840782198544
STARLINK-3821           
1 52357U 22045AC  25319.81488286  .00002753  00000+0  19104-3 0  9994
2 52357  53.2188 350.3245 0001292  61.1904 298.9218 15.08832618198591
STARLINK-3837           
1 52358U 22045AD  25319.79649426  .00001265  00000+0  97570-4 0  9998
2 52358  53.2175 350.4057 0001422  78.2699 281.8453 15.08834873198592
STARLINK-3853           
1 52359U 22045AE  25319.81217676  .00006197  00000+0  40714-3 0  9996
2 52359  53.2184 350.3462 0001939  95.3971 264.7242 15.08836562198591
STARLINK-3728           
1 52361U 22045AG  25319.47266728  .00017107  00000+0  10898-2 0  9995
2 52361  53.2170 351.8602 0001241  72.7693 287.3434 15.08858023198542
STARLINK-3848           
1 52362U 22045AH  25319.38893545  .00023014  00000+0  14584-2 0  9999
2 52362  53.2164 342.2355 0001235  78.3529 281.7602 15.08865233198667
STARLINK-3830           
1 52363U 22045AJ  25319.46898950  .00001980  00000+0  14254-3 0  9997
2 52363  53.2171 351.8759 0001487  91.5280 268.5882 15.08824347198541
STARLINK-3820           
1 52364U 22045AK  25319.50668043  .00000874  00000+0  73030-4 0  9990
2 52364  53.2177 341.6190 0001284 100.6143 259.4993 15.08831577198689
STARLINK-3874           
1 52365U 22045AL  25319.33004808  .00000785  00000+0  67379-4 0  9995
2 52365  53.2187 342.4985 0001460  95.5650 264.5508 15.08838476198654
STARLINK-3808           
1 52366U 22045AM  25319.31166397  .00017489  00000+0  11135-2 0  9992
2 52366  53.2165 342.5835 0001076  80.0129 280.0984 15.08861914198653
STARLINK-3817           
1 52367U 22045AN  25319.45149909  .00008660  00000+0  56133-3 0  9997
2 52367  53.2164 341.9542 0001067  69.1376 290.9731 15.08852290198672
STARLINK-3834           
1 52368U 22045AP  25319.36683922 -.00002493  00000+0 -13854-3 0  9999
2 52368  53.2166 342.3349 0001241  79.6801 280.4331 15.08852151198652
STARLINK-3841           
1 52369U 22045AQ  25319.44781096  .00005316  00000+0  35180-3 0  9991
2 52369  53.2170 341.9700 0001389 103.0882 257.0265 15.08842615198670
STARLINK-3827           
1 52370U 22045AR  25319.37516388  .00004837  00000+0  32183-3 0  9992
2 52370  53.2171 342.3075 0001178 115.0778 245.0336 15.08835982198660
STARLINK-3798           
1 52371U 22045AS  25319.37147881  .00001844  00000+0  13392-3 0  9997
2 52371  53.2183 342.3244 0001851  85.3172 274.8031 15.08837641198652
STARLINK-3796           
1 52372U 22045AT  25319.36317216  .00002116  00000+0  15104-3 0  9994
2 52372  53.2163 342.3529 0001420  96.1986 263.9168 15.08836168198655
STARLINK-3550           
1 52373U 22045AU  25319.35213253  .00002287  00000+0  16178-3 0  9991
2 52373  53.2194 342.4022 0001730  87.6360 272.4830 15.08833962198665
STARLINK-3762           
1 52374U 22045AV  25319.48829162  .00005330  00000+0  35275-3 0  9999
2 52374  53.2180 341.7897 0001418  68.9661 291.1483 15.08837945198681
STARLINK-3785           
1 52375U 22045AW  25319.35949078  .00011200  00000+0  72070-3 0  9992
2 52375  53.2181 342.3700 0001651  90.1984 269.9198 15.08836620198660
STARLINK-3767           
1 52376U 22045AX  25319.48091928  .00008770  00000+0  56848-3 0  9992
2 52376  53.2206 341.8195 0001405  86.3271 273.7882 15.08837200198684
STARLINK-3805           
1 52377U 22045AY  25319.37056916  .00011326  00000+0  72839-3 0  9998
2 52377  53.2170 342.5406 0001092  85.9258 274.1859 15.08848874198655
STARLINK-3806           
1 52378U 22045AZ  25319.47358500  .00011886  00000+0  76342-3 0  9998
2 52378  53.2169 341.8567 0000982  88.4122 271.6983 15.08850400198680
STARLINK-3800           
1 52379U 22045BA  25319.47724985  .00005014  00000+0  33309-3 0  9995
2 52379  53.2197 341.8397 0001378  75.9144 284.2002 15.08817930198681
